GLOBALSTAR M094         
1 39074U 13005C   25350.30010133 -.00000094  00000+0  57226-4 0  9997
2 39074  51.9978 347.6369 0000234  16.9991 343.0884 12.62265391595372
GLOBALSTAR M096         
1 39075U 13005D   25350.31315033 -.00000097  00000+0  35891-4 0  9993
2 39075  52.0090  36.2524 0000193 144.9473 215.1406 12.62269410594290
GLOBALSTAR M078         
1 39076U 13005E   25350.28715681 -.00000103  00000+0  35812-5 0  9995
2 39076  51.9861 120.5957 0000902 170.1524 189.9360 12.62272533592912
GLOBALSTAR M095         
1 39077U 13005F   25350.31340540 -.00000111  00000+0 -38599-4 0  9992
2 39077  52.0068 117.8596 0000571 131.8458 228.2458 12.62267300592779
GLOBALSTAR M087         
1 52888U 22064A   25350.08889516 -.00000086  00000+0  99118-4 0  9991
2 52888  51.9997 259.8874 0000656  47.2265 312.8657 12.62261436168010
